CCSDS_OMM_VERS = 2.0
CREATION_DATE  = 
ORIGINATOR     = 

OBJECT_NAME    = STARLINK-36108
OBJECT_ID      = 2025-281W
CENTER_NAME    = EARTH
REF_FRAME      = TEME
TIME_SYSTEM    = UTC
MEAN_ELEMENT_THEORY = SGP/SGP4

EPOCH          = 2025-12-24T04:00:01.998720
MEAN_MOTION    = 15.58958266
ECCENTRICITY   = .0001365
INCLINATION    = 43.0002
RA_OF_ASC_NODE = 52.8094
ARG_OF_PERICENTER = 272.8958
MEAN_ANOMALY   = 57.5564

EPHEMERIS_TYPE = 0
CLASSIFICATION_TYPE = U
NORAD_CAT_ID   = 66868
ELEMENT_SET_NO = 999
REV_AT_EPOCH   = 306
BSTAR          = -.28427E-1
MEAN_MOTION_DOT = -.1992225E-1
MEAN_MOTION_DDOT = 0

CCSDS_OMM_VERS = 2.0
CREATION_DATE  = 
ORIGINATOR     = 

OBJECT_NAME    = STARLINK-36092
OBJECT_ID      = 2025-281X
CENTER_NAME    = EARTH
REF_FRAME      = TEME
TIME_SYSTEM    = UTC
MEAN_ELEMENT_THEORY = SGP/SGP4

EPOCH          = 2025-12-24T04:00:01.998720
MEAN_MOTION    = 15.58956180
ECCENTRICITY   = .0001418
INCLINATION    = 42.9998
RA_OF_ASC_NODE = 52.8045
ARG_OF_PERICENTER = 271.2848
MEAN_ANOMALY   = 61.0850

EPHEMERIS_TYPE = 0
CLASSIFICATION_TYPE = U
NORAD_CAT_ID   = 66869
ELEMENT_SET_NO = 999
REV_AT_EPOCH   = 325
BSTAR          = -.28373E-1
MEAN_MOTION_DOT = -.1988862E-1
MEAN_MOTION_DDOT = 0

CCSDS_OMM_VERS = 2.0
CREATION_DATE  = 
ORIGINATOR     = 

OBJECT_NAME    = STARLINK-36114
OBJECT_ID      = 2025-281Y
CENTER_NAME    = EARTH
REF_FRAME      = TEME
TIME_SYSTEM    = UTC
MEAN_ELEMENT_THEORY = SGP/SGP4

EPOCH          = 2025-12-24T04:00:01.998720
MEAN_MOTION    = 15.58955880
ECCENTRICITY   = .0001534
INCLINATION    = 42.9998
RA_OF_ASC_NODE = 52.7988
ARG_OF_PERICENTER = 269.2948
MEAN_ANOMALY   = 64.9931

EPHEMERIS_TYPE = 0
CLASSIFICATION_TYPE = U
NORAD_CAT_ID   = 66870
ELEMENT_SET_NO = 999
REV_AT_EPOCH   = 312
BSTAR          = -.2835E-1
MEAN_MOTION_DOT = -.198751E-1
MEAN_MOTION_DDOT = 0

CCSDS_OMM_VERS = 2.0
CREATION_DATE  = 
ORIGINATOR     = 

OBJECT_NAME    = STARLINK-36095
OBJECT_ID      = 2025-281Z
CENTER_NAME    = EARTH
REF_FRAME      = TEME
TIME_SYSTEM    = UTC
MEAN_ELEMENT_THEORY = SGP/SGP4

EPOCH          = 2025-12-24T04:00:01.998720
MEAN_MOTION    = 15.58957412
ECCENTRICITY   = .0001449
INCLINATION    = 43.0001
RA_OF_ASC_NODE = 52.7936
ARG_OF_PERICENTER = 272.6694
MEAN_ANOMALY   = 63.5337

EPHEMERIS_TYPE = 0
CLASSIFICATION_TYPE = U
NORAD_CAT_ID   = 66871
ELEMENT_SET_NO = 999
REV_AT_EPOCH   = 326
BSTAR          = -.28378E-1
MEAN_MOTION_DOT = -.1989214E-1
MEAN_MOTION_DDOT = 0

CCSDS_OMM_VERS = 2.0
CREATION_DATE  = 
ORIGINATOR     = 

OBJECT_NAME    = STARLINK-36082
OBJECT_ID      = 2025-281AA
CENTER_NAME    = EARTH
REF_FRAME      = TEME
TIME_SYSTEM    = UTC
MEAN_ELEMENT_THEORY = SGP/SGP4

EPOCH          = 2025-12-24T04:00:01.998720
MEAN_MOTION    = 15.58957047
ECCENTRICITY   = .0001425
INCLINATION    = 42.9999
RA_OF_ASC_NODE = 52.7888
ARG_OF_PERICENTER = 271.0519
MEAN_ANOMALY   = 67.0698

EPHEMERIS_TYPE = 0
CLASSIFICATION_TYPE = U
NORAD_CAT_ID   = 66872
ELEMENT_SET_NO = 999
REV_AT_EPOCH   = 312
BSTAR          = -.28395E-1
MEAN_MOTION_DOT = -.1990239E-1
MEAN_MOTION_DDOT = 0

CCSDS_OMM_VERS = 2.0
CREATION_DATE  = 
ORIGINATOR     = 

OBJECT_NAME    = STARLINK-36128
OBJECT_ID      = 2025-281AB
CENTER_NAME    = EARTH
REF_FRAME      = TEME
TIME_SYSTEM    = UTC
MEAN_ELEMENT_THEORY = SGP/SGP4

EPOCH          = 2025-12-24T04:00:01.998720
MEAN_MOTION    = 15.58949238
ECCENTRICITY   = .0001359
INCLINATION    = 43.0004
RA_OF_ASC_NODE = 52.7738
ARG_OF_PERICENTER = 264.5101
MEAN_ANOMALY   = 79.3618

EPHEMERIS_TYPE = 0
CLASSIFICATION_TYPE = U
NORAD_CAT_ID   = 66873
ELEMENT_SET_NO = 999
REV_AT_EPOCH   = 326
BSTAR          = -.28144E-1
MEAN_MOTION_DOT = -.197423E-1
MEAN_MOTION_DDOT = 0

CCSDS_OMM_VERS = 2.0
CREATION_DATE  = 
ORIGINATOR     = 

OBJECT_NAME    = STARLINK-36129
OBJECT_ID      = 2025-281AC
CENTER_NAME    = EARTH
REF_FRAME      = TEME
TIME_SYSTEM    = UTC
MEAN_ELEMENT_THEORY = SGP/SGP4

EPOCH          = 2025-12-24T04:00:01.998720
MEAN_MOTION    = 15.58953681
ECCENTRICITY   = .0001298
INCLINATION    = 43.0000
RA_OF_ASC_NODE = 52.7842
ARG_OF_PERICENTER = 265.1645
MEAN_ANOMALY   = 74.8743

EPHEMERIS_TYPE = 0
CLASSIFICATION_TYPE = U
NORAD_CAT_ID   = 66874
ELEMENT_SET_NO = 999
REV_AT_EPOCH   = 326
BSTAR          = -.28296E-1
MEAN_MOTION_DOT = -.198383E-1
MEAN_MOTION_DDOT = 0

CCSDS_OMM_VERS = 2.0
CREATION_DATE  = 
ORIGINATOR     = 

OBJECT_NAME    = STARLINK-36053
OBJECT_ID      = 2025-281AD
CENTER_NAME    = EARTH
REF_FRAME      = TEME
TIME_SYSTEM    = UTC
MEAN_ELEMENT_THEORY = SGP/SGP4

EPOCH          = 2025-12-24T04:00:01.998720
MEAN_MOTION    = 15.58956578
ECCENTRICITY   = .0001383
INCLINATION    = 43.0001
RA_OF_ASC_NODE = 52.7683
ARG_OF_PERICENTER = 273.6406
MEAN_ANOMALY   = 72.1492

EPHEMERIS_TYPE = 0
CLASSIFICATION_TYPE = U
NORAD_CAT_ID   = 66875
ELEMENT_SET_NO = 999
REV_AT_EPOCH   = 326
BSTAR          = -.28388E-1
MEAN_MOTION_DOT = -.1989731E-1
MEAN_MOTION_DDOT = 0

CCSDS_OMM_VERS = 2.0
CREATION_DATE  = 
ORIGINATOR     = 

OBJECT_NAME    = STARLINK-35702
OBJECT_ID      = 2025-281AE
CENTER_NAME    = EARTH
REF_FRAME      = TEME
TIME_SYSTEM    = UTC
MEAN_ELEMENT_THEORY = SGP/SGP4

EPOCH          = 2025-12-24T04:00:01.998720
MEAN_MOTION    = 15.58950449
ECCENTRICITY   = .0001488
INCLINATION    = 43.0000
RA_OF_ASC_NODE = 52.7793
ARG_OF_PERICENTER = 270.2738
MEAN_ANOMALY   = 71.6782

EPHEMERIS_TYPE = 0
CLASSIFICATION_TYPE = U
NORAD_CAT_ID   = 66876
ELEMENT_SET_NO = 999
REV_AT_EPOCH   = 326
BSTAR          = -.28148E-1
MEAN_MOTION_DOT = -.1974696E-1
MEAN_MOTION_DDOT = 0

CCSDS_OMM_VERS = 2.0
CREATION_DATE  = 
ORIGINATOR     = 

OBJECT_NAME    = ZQ-3 R/B
OBJECT_ID      = 2025-282A
CENTER_NAME    = EARTH
REF_FRAME      = TEME
TIME_SYSTEM    = UTC
MEAN_ELEMENT_THEORY = SGP/SGP4

EPOCH          = 2025-12-24T03:53:49.392672
MEAN_MOTION    = 14.82884481
ECCENTRICITY   = .0682279
INCLINATION    = 56.9490
RA_OF_ASC_NODE = 13.1714
ARG_OF_PERICENTER = 240.1158
MEAN_ANOMALY   = 113.0416

EPHEMERIS_TYPE = 0
CLASSIFICATION_TYPE = U
NORAD_CAT_ID   = 66877
ELEMENT_SET_NO = 999
REV_AT_EPOCH   = 307
BSTAR          = .17131E-3
MEAN_MOTION_DOT = .998294E-2
MEAN_MOTION_DDOT = .78945E-5

CCSDS_OMM_VERS = 2.0
CREATION_DATE  = 
ORIGINATOR     = 

OBJECT_NAME    = STARLINK-35866
OBJECT_ID      = 2025-283A
CENTER_NAME    = EARTH
REF_FRAME      = TEME
TIME_SYSTEM    = UTC
MEAN_ELEMENT_THEORY = SGP/SGP4

EPOCH          = 2025-12-24T04:00:01.998720
MEAN_MOTION    = 15.66562379
ECCENTRICITY   = .0001352
INCLINATION    = 53.1593
RA_OF_ASC_NODE = 16.7603
ARG_OF_PERICENTER = 78.9955
MEAN_ANOMALY   = 8.6210

EPHEMERIS_TYPE = 0
CLASSIFICATION_TYPE = U
NORAD_CAT_ID   = 66878
ELEMENT_SET_NO = 999
REV_AT_EPOCH   = 426
BSTAR          = -.21457E-1
MEAN_MOTION_DOT = -.2011174E-1
MEAN_MOTION_DDOT = 0

CCSDS_OMM_VERS = 2.0
CREATION_DATE  = 
ORIGINATOR     = 

OBJECT_NAME    = STARLINK-35749
OBJECT_ID      = 2025-283B
CENTER_NAME    = EARTH
REF_FRAME      = TEME
TIME_SYSTEM    = UTC
MEAN_ELEMENT_THEORY = SGP/SGP4

EPOCH          = 2025-12-24T04:00:01.998720
MEAN_MOTION    = 15.66564272
ECCENTRICITY   = .000146
INCLINATION    = 53.1594
RA_OF_ASC_NODE = 16.7519
ARG_OF_PERICENTER = 80.0731
MEAN_ANOMALY   = 11.3759

EPHEMERIS_TYPE = 0
CLASSIFICATION_TYPE = U
NORAD_CAT_ID   = 66879
ELEMENT_SET_NO = 999
REV_AT_EPOCH   = 426
BSTAR          = -.21485E-1
MEAN_MOTION_DOT = -.2013653E-1
MEAN_MOTION_DDOT = 0

