STARLINK-36108          
1 66868U 25281W   25358.16668980 -.01992225  00000+0 -28427-1 0  9994
2 66868  43.0002  52.8094 0001365 272.8958  57.5564 15.58958266  3065
STARLINK-36092          
1 66869U 25281X   25358.16668980 -.01988862  00000+0 -28373-1 0  9997
2 66869  42.9998  52.8045 0001418 271.2848  61.0850 15.58956180  3256
STARLINK-36114          
1 66870U 25281Y   25358.16668980 -.01987510  00000+0 -28350-1 0  9993
2 66870  42.9998  52.7988 0001534 269.2948  64.9931 15.58955880  3124
STARLINK-36095          
1 66871U 25281Z   25358.16668980 -.01989214  00000+0 -28378-1 0  9997
2 66871  43.0001  52.7936 0001449 272.6694  63.5337 15.58957412  3269
STARLINK-36082          
1 66872U 25281AA  25358.16668980 -.01990239  00000+0 -28395-1 0  9996
2 66872  42.9999  52.7888 0001425 271.0519  67.0698 15.58957047  3121
STARLINK-36128          
1 66873U 25281AB  25358.16668980 -.01974230  00000+0 -28144-1 0  9992
2 66873  43.0004  52.7738 0001359 264.5101  79.3618 15.58949238  3261
STARLINK-36129          
1 66874U 25281AC  25358.16668980 -.01983830  00000+0 -28296-1 0  9997
2 66874  43.0000  52.7842 0001298 265.1645  74.8743 15.58953681  3262
STARLINK-36053          
1 66875U 25281AD  25358.16668980 -.01989731  00000+0 -28388-1 0  9996
2 66875  43.0001  52.7683 0001383 273.6406  72.1492 15.58956578  3261
STARLINK-35702          
1 66876U 25281AE  25358.16668980 -.01974696  00000+0 -28148-1 0  9995
2 66876  43.0000  52.7793 0001488 270.2738  71.6782 15.58950449  3267
ZQ-3 R/B                
1 66877U 25282A   25358.16237723  .00998294  78945-5  17131-3 0  9992
2 66877  56.9490  13.1714 0682279 240.1158 113.0416 14.82884481  3075
STARLINK-35866          
1 66878U 25283A   25358.16668980 -.02011174  00000+0 -21457-1 0  9999
2 66878  53.1593  16.7603 0001352  78.9955   8.6210 15.66562379  4269
STARLINK-35749          
1 66879U 25283B   25358.16668980 -.02013653  00000+0 -21485-1 0  9995
2 66879  53.1594  16.7519 0001460  80.0731  11.3759 15.66564272  4266
